NORAD_CAT_ID,OBJECT_NAME,OBJECT_TYPE,EPOCH,MEAN_MOTION,ECCENTRICITY,INCLINATION,RA_OF_ASC_NODE,ARG_OF_PERICENTER,MEAN_ANOMALY,BSTAR,MEAN_MOTION_DOT,MEAN_MOTION_DDOT,TLE_LINE0,TLE_LINE1,TLE_LINE2,SEMIMAJOR_AXIS,PERIOD,APOGEE,PERIGEE,DECAYED
54780.0,STARLINK-5449,PAYLOAD,2024-01-27 19:30:16,15.08841331,0.0001266,53.2161,254.1211,102.0499,258.0635,0.0002377,3.497e-05,0.0,0 STARLINK-5449,1 54780U 22175Y   24027.81268814  .00003497  00000-0  23770-3 0  9999,2 54780  53.2161 254.1211 0001266 102.0499 258.0635 15.08841331 61448,6917.876,95.437,540.617,538.866,0.0
54780.0,STARLINK-5449,PAYLOAD,2024-01-27 21:05:39,15.08841823,0.0001317,53.2163,253.8228,93.5969,266.5174,0.00023743,3.493e-05,0.0,0 STARLINK-5449,1 54780U 22175Y   24027.87892749  .00003493  00000-0  23743-3 0  9991,2 54780  53.2163 253.8228 0001317  93.5969 266.5174 15.08841823 63616,6917.875,95.437,540.651,538.829,0.0
54780.0,STARLINK-5449,PAYLOAD,2024-01-28 14:34:53,15.08856909,0.0002086,53.2187,250.5386,142.2883,217.8255,-0.00010346,-1.935e-05,0.0,0 STARLINK-5449,1 54780U 22175Y   24028.60756556 -.00001935  00000-0 -10346-3 0  9994,2 54780  53.2187 250.5386 0002086 142.2883 217.8255 15.08856909 63724,6917.829,95.436,541.137,538.251,0.0
54780.0,STARLINK-5449,PAYLOAD,2024-01-28 20:56:26,15.08855537,0.0001549,53.2165,249.3613,145.723,214.3863,-9.5266e-05,-1.805e-05,0.0,0 STARLINK-5449,1 54780U 22175Y   24028.87252382 -.00001805  00000-0 -95266-4 0  9992,2 54780  53.2165 249.3613 0001549 145.7230 214.3863 15.08855537 63763,6917.833,95.437,540.769,538.626,0.0
54780.0,STARLINK-5449,PAYLOAD,2024-01-29 14:25:40,15.08852627,0.0001301,53.217,246.0888,78.3649,281.7489,-2.7451e-05,-7.25e-06,0.0,0 STARLINK-5449,1 54780U 22175Y   24029.60116122 -.00000725  00000-0 -27451-4 0  9996,2 54780  53.2170 246.0888 0001301  78.3649 281.7489 15.08852627 63879,6917.842,95.437,540.607,538.807,0.0
54780.0,STARLINK-5449,PAYLOAD,2024-01-29 23:57:58,15.08855314,0.0001379,53.2164,244.3045,86.6488,273.4661,-3.5745e-06,-3.45e-06,0.0,0 STARLINK-5449,1 54780U 22175Y   24029.99859479 -.00000345  00000-0 -35745-5 0  9991,2 54780  53.2164 244.3045 0001379  86.6488 273.4661 15.08855314 61779,6917.834,95.437,540.653,538.745,0.0
54780.0,STARLINK-5449,PAYLOAD,2024-01-30 19:02:36,15.08840797,0.0001179,53.2163,240.732,87.6359,272.4768,-4.0434e-05,-9.31e-06,0.0,0 STARLINK-5449,1 54780U 22175Y   24030.79348241 -.00000931  00000-0 -40434-4 0  9992,2 54780  53.2163 240.7320 0001179  87.6359 272.4768 15.08840797 61899,6917.878,95.438,540.559,538.927,0.0
54780.0,STARLINK-5449,PAYLOAD,2024-01-30 23:48:46,15.08837755,0.0001246,53.2167,239.8419,84.8039,275.3095,-3.2446e-05,-8.04e-06,0.0,0 STARLINK-5449,1 54780U 22175Y   24030.99220551 -.00000804  00000-0 -32446-4 0  9990,2 54780  53.2167 239.8419 0001246  84.8039 275.3095 15.08837755 64089,6917.887,95.438,540.614,538.89,0.0
54780.0,STARLINK-5449,PAYLOAD,2024-02-01 13:58:01,15.08835678,0.0001275,53.2165,232.7056,87.4965,272.6173,5.5346e-05,5.93e-06,0.0,0 STARLINK-5449,1 54780U 22175Y   24032.58196676  .00000593  00000-0  55346-4 0  9994,2 54780  53.2165 232.7056 0001275  87.4965 272.6173 15.08835678 64321,6917.894,95.438,540.641,538.877,0.0
54780.0,STARLINK-5449,PAYLOAD,2024-02-02 18:34:58,15.08835823,0.0001421,53.2167,227.3518,106.0498,254.0651,9.029e-05,1.149e-05,0.0,0 STARLINK-5449,1 54780U 22175Y   24033.77429080  .00001149  00000-0  90290-4 0  9999,2 54780  53.2167 227.3518 0001421 106.0498 254.0651 15.08835823 62345,6917.893,95.438,540.741,538.775,0.0
54780.0,STARLINK-5449,PAYLOAD,2024-02-02 21:45:44,15.08839143,0.0001303,53.2161,226.7587,90.4386,269.6756,5.4713e-05,5.83e-06,0.0,0 STARLINK-5449,1 54780U 22175Y   24033.90676672  .00000583  00000-0  54713-4 0  9996,2 54780  53.2161 226.7587 0001303  90.4386 269.6756 15.08839143 64528,6917.883,95.438,540.649,538.847,0.0
54780.0,STARLINK-5449,PAYLOAD,2024-02-03 12:04:13,15.08838321,0.0001411,53.2165,224.0819,97.9676,262.1476,3.5634e-05,2.79e-06,0.0,0 STARLINK-5449,1 54780U 22175Y   24034.50292882  .00000279  00000-0  35634-4 0  9993,2 54780  53.2165 224.0819 0001411  97.9676 262.1476 15.08838321 64619,6917.886,95.438,540.727,538.774,0.0
54780.0,STARLINK-5449,PAYLOAD,2024-02-03 20:01:08,15.08840168,0.0001347,53.2164,222.5953,92.1175,267.9971,5.0306e-05,5.13e-06,0.0,0 STARLINK-5449,1 54780U 22175Y   24034.83412757  .00000513  00000-0  50306-4 0  9998,2 54780  53.2164 222.5953 0001347  92.1175 267.9971 15.08840168 62500,6917.88,95.438,540.677,538.813,0.0
54780.0,STARLINK-5449,PAYLOAD,2024-02-04 11:55:00,15.08837904,0.0001372,53.2164,219.6221,88.6528,271.4621,2.0028e-05,3.1e-07,0.0,0 STARLINK-5449,1 54780U 22175Y   24035.49653122  .00000031  00000-0  20028-4 0  9997,2 54780  53.2164 219.6221 0001372  88.6528 271.4621 15.08837904 64761,6917.887,95.438,540.701,538.803,0.0
54780.0,STARLINK-5449,PAYLOAD,2024-02-04 21:27:19,15.08839184,0.0001362,53.2165,217.8375,90.9886,269.1262,2.9995e-05,1.89e-06,0.0,0 STARLINK-5449,1 54780U 22175Y   24035.89397025  .00000189  00000-0  29995-4 0  9994,2 54780  53.2165 217.8375 0001362  90.9886 269.1262 15.08839184 64828,6917.883,95.438,540.69,538.806,0.0
54780.0,STARLINK-5449,PAYLOAD,2024-02-05 11:45:47,15.08842055,0.0001355,53.2166,215.1615,85.6382,274.4765,7.1205e-05,8.46e-06,0.0,0 STARLINK-5449,1 54780U 22175Y   24036.49012746  .00000846  00000-0  71205-4 0  9996,2 54780  53.2166 215.1615 0001355  85.6382 274.4765 15.08842055 64919,6917.874,95.437,540.676,538.802,0.0
54780.0,STARLINK-5449,PAYLOAD,2024-02-05 18:07:19,15.08845191,0.0001419,53.2167,213.9727,81.4427,278.6726,8.8382e-05,1.119e-05,0.0,0 STARLINK-5449,1 54780U 22175Y   24036.75508481  .00001119  00000-0  88382-4 0  9999,2 54780  53.2167 213.9727 0001419  81.4427 278.6726 15.08845191 64956,6917.865,95.437,540.711,538.748,0.0
54780.0,STARLINK-5449,PAYLOAD,2024-02-06 11:36:33,15.08842109,0.0001392,53.2166,210.7015,80.902,279.213,6.2893e-05,7.13e-06,0.0,0 STARLINK-5449,1 54780U 22175Y   24037.48372672  .00000713  00000-0  62893-4 0  9999,2 54780  53.2166 210.7015 0001392  80.9020 279.2130 15.08842109 65068,6917.874,95.437,540.702,538.776,0.0
54780.0,STARLINK-5449,PAYLOAD,2024-02-06 17:58:06,15.08842692,0.0001346,53.2165,209.512,86.0147,274.0999,6.2267e-05,7.03e-06,0.0,0 STARLINK-5449,1 54780U 22175Y   24037.74868558  .00000703  00000-0  62267-4 0  9995,2 54780  53.2165 209.5120 0001346  86.0147 274.0999 15.08842692 62943,6917.872,95.437,540.668,538.806,0.0
54780.0,STARLINK-5449,PAYLOAD,2024-02-07 14:38:07,15.08838456,0.0001478,53.2171,205.6473,98.2677,261.8483,-1.5471e-05,-5.34e-06,0.0,0 STARLINK-5449,1 54780U 22175Y   24038.60981046 -.00000534  00000-0 -15471-4 0  9998,2 54780  53.2171 205.6473 0001478  98.2677 261.8483 15.08838456 65237,6917.885,95.438,540.773,538.728,0.0
54780.0,STARLINK-5449,PAYLOAD,2024-02-07 17:48:53,15.08839327,0.0001436,53.2173,205.0526,98.4249,261.6906,-1.2285e-05,-4.83e-06,0.0,0 STARLINK-5449,1 54780U 22175Y   24038.74228962 -.00000483  00000-0 -12285-4 0  9997,2 54780  53.2173 205.0526 0001436  98.4249 261.6906 15.08839327 63091,6917.882,95.438,540.741,538.754,0.0
54780.0,STARLINK-5449,PAYLOAD,2024-02-07 20:59:39,15.08840905,0.0001437,53.2171,204.4571,97.4072,262.7084,-4.0337e-06,-3.52e-06,0.0,0 STARLINK-5449,1 54780U 22175Y   24038.87476816 -.00000352  00000-0 -40337-5 0  9999,2 54780  53.2171 204.4571 0001437  97.4072 262.7084 15.08840905 65271,6917.878,95.437,540.737,538.749,0.0
54780.0,STARLINK-5449,PAYLOAD,2024-02-08 14:28:54,15.08838416,0.0001414,53.2171,201.1851,95.8656,264.2498,2.0221e-05,3.4e-07,0.0,0 STARLINK-5449,1 54780U 22175Y   24039.60341024  .00000034  00000-0  20221-4 0  9997,2 54780  53.2171 201.1851 0001414  95.8656 264.2498 15.08838416 65383,6917.885,95.438,540.728,538.772,0.0
54780.0,STARLINK-5449,PAYLOAD,2024-02-08 17:39:40,15.08839975,0.0001426,53.2175,200.5905,95.646,264.4694,3.1099e-05,2.07e-06,0.0,0 STARLINK-5449,1 54780U 22175Y   24039.73588900  .00000207  00000-0  31099-4 0  9994,2 54780  53.2175 200.5905 0001426  95.6460 264.4694 15.08839975 65408,6917.88,95.438,540.732,538.759,0.0
54780.0,STARLINK-5449,PAYLOAD,2024-02-09 14:19:42,15.08832392,0.0001413,53.2177,196.7241,94.1675,265.9478,1.5668e-05,-3.9e-07,0.0,0 STARLINK-5449,1 54780U 22175Y   24040.59701732 -.00000039  00000-0  15668-4 0  9998,2 54780  53.2177 196.7241 0001413  94.1675 265.9478 15.08832392 65533,6917.904,95.438,540.746,538.791,0.0
54780.0,STARLINK-5449,PAYLOAD,2024-02-09 19:05:51,15.08838298,0.0001395,53.2177,195.8324,93.0463,267.0689,4.8187e-05,4.79e-06,0.0,0 STARLINK-5449,1 54780U 22175Y   24040.79573332  .00000479  00000-0  48187-4 0  9992,2 54780  53.2177 195.8324 0001395  93.0463 267.0689 15.08838298 63409,6917.886,95.438,540.716,538.786,0.0
54780.0,STARLINK-5449,PAYLOAD,2024-02-10 14:10:29,15.08832655,0.0001417,53.2178,192.2637,96.6967,263.4186,-2.2042e-05,-6.39e-06,0.0,0 STARLINK-5449,1 54780U 22175Y   24041.59062320 -.00000639  00000-0 -22042-4 0  9993,2 54780  53.2178 192.2637 0001417  96.6967 263.4186 15.08832655 65686,6917.903,95.438,540.748,538.788,0.0
54780.0,STARLINK-5449,PAYLOAD,2024-02-10 18:56:38,15.08853004,0.0001527,53.2181,191.3711,87.7175,272.3992,-0.00019924,-3.459e-05,0.0,0 STARLINK-5449,1 54780U 22175Y   24041.78933589 -.00003459  00000-0 -19924-3 0  9995,2 54780  53.2181 191.3711 0001527  87.7175 272.3992 15.08853004 65716,6917.841,95.437,540.762,538.649,0.0
54780.0,STARLINK-5449,PAYLOAD,2024-02-11 14:01:15,15.08847564,0.0001321,53.2171,187.8023,85.2458,274.8685,7.568e-05,9.17e-06,0.0,0 STARLINK-5449,1 54780U 22175Y   24042.58421211  .00000917  00000-0  75680-4 0  9994,2 54780  53.2171 187.8023 0001321  85.2458 274.8685 15.08847564 65833,6917.857,95.437,540.636,538.808,0.0
54780.0,STARLINK-5449,PAYLOAD,2024-02-11 17:12:01,15.08857152,0.0001477,53.2178,187.2074,76.0227,284.0929,0.00019265,2.781e-05,0.0,0 STARLINK-5449,1 54780U 22175Y   24042.71668288  .00002781  00000-0  19265-3 0  9993,2 54780  53.2178 187.2074 0001477  76.0227 284.0929 15.08857152 63694,6917.828,95.436,540.715,538.671,0.0
